{
  "type": "FeatureCollection",
  "features": [
    {
      "type": "Feature",
      "geometry": {
        "type": "LineString",
        "coordinates": [
          [
            113.9995925,
            22.5924922,
            0
          ],
          [
            114.0056275,
            22.5963405,
            0
          ]
        ]
      },
      "properties": {
        "name": "一号门-三号门",
        "styleUrl": "#line-FBC02D-2348-nodesc",
        "styleHash": "-757093c5",
        "styleMapHash": {
          "normal": "#line-FBC02D-2348-nodesc-normal",
          "highlight": "#line-FBC02D-2348-nodesc-highlight"
        },
        "stroke": "#fbc02d",
        "stroke-opacity": 1,
        "stroke-width": 2.348,
        "type": "已勘测"
      }
    },
    {
      "type": "Feature",
      "geometry": {
        "type": "LineString",
        "coordinates": [
          [
            113.999826,
            22.5924048,
            0
          ],
          [
            114.005684,
            22.5961391,
            0
          ]
        ]
      },
      "properties": {
        "name": "一号门-三号门（对面）",
        "styleUrl": "#line-FBC02D-2348-nodesc",
        "styleHash": "-757093c5",
        "styleMapHash": {
          "normal": "#line-FBC02D-2348-nodesc-normal",
          "highlight": "#line-FBC02D-2348-nodesc-highlight"
        },
        "stroke": "#fbc02d",
        "stroke-opacity": 1,
        "stroke-width": 2.348,
        "type": "已勘测"
      }
    },
    {
      "type": "Feature",
      "geometry": {
        "type": "LineString",
        "coordinates": [
          [
            113.9995374,
            22.592492,
            0
          ],
          [
            113.999237,
            22.5923137,
            0
          ],
          [
            113.9987435,
            22.5920909,
            0
          ],
          [
            113.9983143,
            22.5920314,
            0
          ],
          [
            113.9953264,
            22.59218,
            0
          ],
          [
            113.9951869,
            22.5935073,
            0
          ]
        ]
      },
      "properties": {
        "name": "一号门-七号门",
        "styleUrl": "#line-FBC02D-2348-nodesc",
        "styleHash": "-757093c5",
        "styleMapHash": {
          "normal": "#line-FBC02D-2348-nodesc-normal",
          "highlight": "#line-FBC02D-2348-nodesc-highlight"
        },
        "stroke": "#fbc02d",
        "stroke-opacity": 1,
        "stroke-width": 2.348,
        "type": "已勘测"
      }
    },
    {
      "type": "Feature",
      "geometry": {
        "type": "LineString",
        "coordinates": [
          [
            113.9952265,
            22.5922152,
            0
          ],
          [
            113.9926515,
            22.592235,
            0
          ],
          [
            113.9909135,
            22.5925619,
            0
          ],
          [
            113.9903126,
            22.5925916,
            0
          ],
          [
            113.9893792,
            22.5924133,
            0
          ],
          [
            113.9886711,
            22.5920072,
            0
          ]
        ]
      },
      "properties": {
        "name": "学苑大道X南科一路路口-深圳大学总医院拐角",
        "styleUrl": "#line-FBC02D-2540-nodesc",
        "styleHash": "-3e881d51",
        "styleMapHash": {
          "normal": "#line-FBC02D-2540-nodesc-normal",
          "highlight": "#line-FBC02D-2540-nodesc-highlight"
        },
        "stroke": "#fbc02d",
        "stroke-opacity": 1,
        "stroke-width": 2.54,
        "type": "已勘测"
      }
    },
    {
      "type": "Feature",
      "geometry": {
        "type": "LineString",
        "coordinates": [
          [
            113.9994802,
            22.5921809,
            0
          ],
          [
            113.9988472,
            22.5918738,
            0
          ],
          [
            113.9982893,
            22.5917846,
            0
          ],
          [
            113.9947703,
            22.591953,
            0
          ],
          [
            113.992764,
            22.5919827,
            0
          ]
        ]
      },
      "properties": {
        "name": "一号门对面-学院大道X塘岭路路口",
        "styleUrl": "#line-FBC02D-2348-nodesc",
        "styleHash": "-757093c5",
        "styleMapHash": {
          "normal": "#line-FBC02D-2348-nodesc-normal",
          "highlight": "#line-FBC02D-2348-nodesc-highlight"
        },
        "stroke": "#fbc02d",
        "stroke-opacity": 1,
        "stroke-width": 2.348,
        "type": "已勘测"
      }
    },
    {
      "type": "Feature",
      "geometry": {
        "type": "LineString",
        "coordinates": [
          [
            113.9951869,
            22.5935073,
            0
          ],
          [
            113.9951629,
            22.5946872,
            0
          ],
          [
            113.9952595,
            22.5957074,
            0
          ],
          [
            113.9953668,
            22.5961532,
            0
          ],
          [
            113.9955921,
            22.5963909,
            0
          ],
          [
            113.9965899,
            22.5969258,
            0
          ]
        ]
      },
      "properties": {
        "name": "七号门-六号门",
        "styleUrl": "#line-FBC02D-3118-nodesc",
        "styleHash": "-2931caa7",
        "styleMapHash": {
          "normal": "#line-FBC02D-3118-nodesc-normal",
          "highlight": "#line-FBC02D-3118-nodesc-highlight"
        },
        "stroke": "#fbc02d",
        "stroke-opacity": 1,
        "stroke-width": 3.118,
        "type": "已勘测"
      }
    },
    {
      "type": "Feature",
      "geometry": {
        "type": "LineString",
        "coordinates": [
          [
            113.9965899,
            22.5969258,
            0
          ],
          [
            113.996913,
            22.5973554,
            0
          ],
          [
            113.9969989,
            22.5977516,
            0
          ],
          [
            113.9968808,
            22.5982072,
            0
          ],
          [
            113.996559,
            22.5987124,
            0
          ],
          [
            113.9952608,
            22.5997821,
            0
          ],
          [
            113.9951428,
            22.6001387,
            0
          ],
          [
            113.9948316,
            22.6021791,
            0
          ]
        ]
      },
      "properties": {
        "name": "六号门-五号门",
        "styleUrl": "#line-FBC02D-2925",
        "styleHash": "-3ff9cb84",
        "styleMapHash": {
          "normal": "#line-FBC02D-2925-normal",
          "highlight": "#line-FBC02D-2925-highlight"
        },
        "description": "說明: <br>名称: ",
        "stroke": "#fbc02d",
        "stroke-opacity": 1,
        "stroke-width": 2.925,
        "說明": "",
        "名称": "",
        "type": "已勘测"
      }
    },
    {
      "type": "Feature",
      "geometry": {
        "type": "LineString",
        "coordinates": [
          [
            113.991908,
            22.5924527,
            0
          ],
          [
            113.9917363,
            22.593572,
            0
          ],
          [
            113.9924659,
            22.5959592,
            0
          ],
          [
            113.9891614,
            22.5970091,
            0
          ]
        ]
      },
      "properties": {
        "name": "学苑大道X笃学路-科研环路X幽兰路（东侧）",
        "styleUrl": "#line-000000-2348",
        "styleHash": "-2c4d5444",
        "styleMapHash": {
          "normal": "#line-000000-2348-normal",
          "highlight": "#line-000000-2348-highlight"
        },
        "description": "說明: <br>名称: ",
        "stroke": "#000000",
        "stroke-opacity": 1,
        "stroke-width": 2.348,
        "說明": "",
        "名称": "",
        "type": "待勘测"
      }
    },
    {
      "type": "Feature",
      "geometry": {
        "type": "LineString",
        "coordinates": [
          [
            113.9891292,
            22.5968605,
            0
          ],
          [
            113.9922406,
            22.5958799,
            0
          ],
          [
            113.9915754,
            22.5937503,
            0
          ],
          [
            113.9917042,
            22.5925121,
            0
          ]
        ]
      },
      "properties": {
        "name": "学苑大道X笃学路-科研环路X幽兰路（西侧）",
        "styleUrl": "#line-FBC02D-3118",
        "styleHash": "-1a20e0c2",
        "styleMapHash": {
          "normal": "#line-FBC02D-3118-normal",
          "highlight": "#line-FBC02D-3118-highlight"
        },
        "description": "說明: <br>名称: ",
        "stroke": "#fbc02d",
        "stroke-opacity": 1,
        "stroke-width": 3.118,
        "說明": "",
        "名称": "",
        "type": "已勘测"
      }
    },
    {
      "type": "Feature",
      "geometry": {
        "type": "LineString",
        "coordinates": [
          [
            113.9950261,
            22.5922407,
            0
          ],
          [
            113.9949403,
            22.5947368,
            0
          ],
          [
            113.9950583,
            22.5961038,
            0
          ],
          [
            113.9953909,
            22.5965297,
            0
          ],
          [
            113.996335,
            22.5970745,
            0
          ],
          [
            113.9966247,
            22.5976688,
            0
          ],
          [
            113.9965496,
            22.598164,
            0
          ],
          [
            113.9963243,
            22.5985008,
            0
          ],
          [
            113.9954124,
            22.5993031,
            0
          ]
        ]
      },
      "properties": {
        "name": "学苑大道X南科一路-深圳大学惟新门",
        "styleUrl": "#line-FBC02D-1963",
        "styleHash": "-eedaf06",
        "styleMapHash": {
          "normal": "#line-FBC02D-1963-normal",
          "highlight": "#line-FBC02D-1963-highlight"
        },
        "description": "說明: <br>名称: ",
        "stroke": "#fbc02d",
        "stroke-opacity": 1,
        "stroke-width": 1.963,
        "說明": "",
        "名称": "",
        "type": "已勘测"
      }
    },
    {
      "type": "Feature",
      "geometry": {
        "type": "LineString",
        "coordinates": [
          [
            113.992764,
            22.5919827,
            0
          ],
          [
            113.993094,
            22.5910423,
            0
          ],
          [
            113.9933407,
            22.590339,
            0
          ],
          [
            113.9933729,
            22.5882687,
            0
          ],
          [
            113.9935017,
            22.5878923,
            0
          ]
        ]
      },
      "properties": {
        "name": "学苑大道X塘岭路-塘岭路X留仙大道",
        "styleUrl": "#line-FBC02D-2733",
        "styleHash": "1a5a9a1c",
        "styleMapHash": {
          "normal": "#line-FBC02D-2733-normal",
          "highlight": "#line-FBC02D-2733-highlight"
        },
        "description": "說明: <br>名称: 学苑大道X塘岭路-塘岭路X留仙大道",
        "stroke": "#fbc02d",
        "stroke-opacity": 1,
        "stroke-width": 2.733,
        "說明": "",
        "名称": "学苑大道X塘岭路-塘岭路X留仙大道",
        "type": "已勘测"
      }
    },
    {
      "type": "Feature",
      "geometry": {
        "type": "LineString",
        "coordinates": [
          [
            113.9934839,
            22.5879598,
            0
          ],
          [
            114.0002108,
            22.5905254,
            0
          ]
        ]
      },
      "properties": {
        "name": "塘岭路X留仙大道-塘开路X留仙大道",
        "styleUrl": "#line-FBC02D-2540",
        "styleHash": "-412411e",
        "styleMapHash": {
          "normal": "#line-FBC02D-2540-normal",
          "highlight": "#line-FBC02D-2540-highlight"
        },
        "description": "說明: <br>名称: ",
        "stroke": "#fbc02d",
        "stroke-opacity": 1,
        "stroke-width": 2.54,
        "說明": "",
        "名称": "",
        "type": "已勘测"
      }
    },
    {
      "type": "Feature",
      "geometry": {
        "type": "LineString",
        "coordinates": [
          [
            113.9995778,
            22.5922094,
            0
          ],
          [
            114.0002108,
            22.5905254,
            0
          ]
        ]
      },
      "properties": {
        "name": "一号门对面-塘开路X留仙大道",
        "styleUrl": "#line-FBC02D-2925",
        "styleHash": "-3ff9cb84",
        "styleMapHash": {
          "normal": "#line-FBC02D-2925-normal",
          "highlight": "#line-FBC02D-2925-highlight"
        },
        "description": "說明: <br>名称: ",
        "stroke": "#fbc02d",
        "stroke-opacity": 1,
        "stroke-width": 2.925,
        "說明": "",
        "名称": "",
        "type": "已勘测"
      }
    }
  ]
}